     2.11           N: GPS NAV DATA                         RINEX VERSION / TYPE
teqc  2019Feb25                         20221121 12:26:28UTCPGM / RUN BY / DATE
OSX ker:10.11.6|Core i5|gcc 4.3 -m64|OSX ker:10.10+|=+      COMMENT
    5.5879D-09  1.4901D-08 -5.9605D-08 -1.1921D-07          ION ALPHA
    7.7824D+04  3.2768D+04 -6.5536D+04 -2.6214D+05          ION BETA
   -9.313225746155D-10-8.881784197001D-16    61440     1546 DELTA-UTC: A0,A1,T,W
                                                            END OF HEADER
 4 09  8 22 16  0  0.0-2.312003634870D-04-1.705302565824D-11 0.000000000000D+00
    9.500000000000D+01 8.775000000000D+01 4.965563978528D-09 1.980200560742D+00
    4.518777132034D-06 8.689427748322D-03 8.285045623779D-06 5.153792980194D+03
    5.760000000000D+05-1.750886440277D-07-1.898616959303D+00-1.862645149231D-09
    9.399093560717D-01 2.137500000000D+02 5.036927010513D-01-8.394635384545D-09
    3.439428980308D-10 1.000000000000D+00 1.545000000000D+03 0.000000000000D+00
    2.000000000000D+00 0.000000000000D+00-6.053596735001D-09 9.500000000000D+01
    5.688180000000D+05 4.000000000000D+00
23 09  8 22 16  0  0.0 3.892974928021D-04-3.410605131648D-13 0.000000000000D+00
    7.300000000000D+01-5.018750000000D+01 4.076598378114D-09-9.635310518730D-01
   -2.875924110413D-06 6.439369521104D-03 1.187063753605D-05 5.153582712173D+03
    5.760000000000D+05 1.862645149231D-09 1.977880457517D-01-1.545995473862D-07
    9.702799523289D-01 1.533125000000D+02 2.948165449599D+00-7.836397845996D-09
   -9.893269237232D-11 1.000000000000D+00 1.545000000000D+03 0.000000000000D+00
    2.000000000000D+00 0.000000000000D+00-2.002343535423D-08 7.300000000000D+01
    5.688180000000D+05 4.000000000000D+00
 2 09  8 22 16  0  0.0 1.669912599027D-04 2.501110429876D-12 0.000000000000D+00
    4.600000000000D+01 9.090625000000D+01 4.941277252603D-09-8.760687726494D-01
    4.766508936882D-06 9.063035831787D-03 8.013099431992D-06 5.153697782516D+03
    5.760000000000D+05-5.215406417847D-08-1.916887243716D+00-2.719461917877D-07
    9.407288857055D-01 2.194687500000D+02 2.882903974808D+00-8.351776456441D-09
    4.500187450871D-10 1.000000000000D+00 1.545000000000D+03 0.000000000000D+00
    2.000000000000D+00 0.000000000000D+00-1.722946763039D-08 4.600000000000D+01
    5.688180000000D+05 4.000000000000D+00
32 09  8 22 15 59 44.0 2.104369923472D-04-6.707523425575D-12 0.000000000000D+00
    4.400000000000D+01-3.768750000000D+01 4.771984486594D-09-1.826475867937D+00
   -1.588836312294D-06 1.324595161714D-02 3.859400749207D-06 5.153734823227D+03
    5.759840000000D+05-1.322478055954D-07-7.698876607742D-01 3.334134817123D-07
    9.626077267385D-01 3.068125000000D+02-1.130231184357D+00-8.439994416788D-09
   -2.017941198208D-10 1.000000000000D+00 1.545000000000D+03 0.000000000000D+00
    2.000000000000D+00 0.000000000000D+00-3.259629011154D-09 4.400000000000D+01
    5.688180000000D+05 4.000000000000D+00
16 09  8 22 16  0  0.0 2.041133120656D-05-3.751665644813D-12 0.000000000000D+00
    8.500000000000D+01-4.796875000000D+01 4.975564395086D-09 1.308857838405D+00
   -2.330169081688D-06 5.305131548084D-03 3.412365913391D-06 5.153597208023D+03
    5.760000000000D+05 6.519258022308D-08 2.309412416640D+00 2.421438694000D-08
    9.691520322494D-01 3.127187500000D+02-2.859693053237D-01-8.464638300447D-09
   -4.025167664390D-10 1.000000000000D+00 1.545000000000D+03 0.000000000000D+00
    2.000000000000D+00 0.000000000000D+00-9.778887033463D-09 8.500000000000D+01
    5.704380000000D+05 4.000000000000D+00
13 09  8 22 16  0  0.0 3.035459667444D-04 5.684341886081D-13 0.000000000000D+00
    5.200000000000D+01-4.087500000000D+01 3.561219767669D-09-2.809391639124D-01
   -2.417713403702D-06 4.068358684890D-03 1.242011785507D-05 5.153665390015D+03
    5.760000000000D+05-8.754432201386D-08 2.518322553100D-01 1.862645149231D-08
    9.948916252753D-01 1.629062500000D+02 1.650317537047D+00-7.568172387615D-09
   -7.678891285216D-11 1.000000000000D+00 1.545000000000D+03 0.000000000000D+00
    2.000000000000D+00 0.000000000000D+00-1.117587089539D-08 5.200000000000D+01
    5.730480000000D+05 4.000000000000D+00
24 09  8 22 16  0  0.0 2.144216559827D-04 3.069544618484D-12 0.000000000000D+00
    8.400000000000D+01 9.996875000000D+01 4.722339561541D-09 1.419725525381D+00
    5.215406417847D-06 6.556439329870D-03 7.312744855881D-06 5.153670469284D+03
    5.760000000000D+05 1.955777406693D-07-1.852414213013D+00 1.769512891769D-07
    9.500345939199D-01 2.309687500000D+02-6.376340922708D-01-8.244629136182D-09
    4.728768400756D-10 1.000000000000D+00 1.545000000000D+03 0.000000000000D+00
    2.000000000000D+00 0.000000000000D+00-1.396983861923D-09 8.400000000000D+01
    5.745180000000D+05 4.000000000000D+00
31 09  8 22 18  0  0.0-6.488803774118D-05 0.000000000000D+00 0.000000000000D+00
    5.500000000000D+01 8.446875000000D+01 4.440184951526D-09-1.698716051691D+00
    4.569068551064D-06 7.006254745647D-03 8.564442396164D-06 5.153772918701D+03
    5.832000000000D+05-1.080334186554D-07 1.237484749773D+00 1.490116119385D-07
    9.736297948119D-01 2.257187500000D+02-1.139195630356D+00-8.083550998060D-09
    6.764567485674D-10 1.000000000000D+00 1.545000000000D+03 0.000000000000D+00
    2.000000000000D+00 0.000000000000D+00-1.303851604462D-08 5.500000000000D+01
    5.760180000000D+05 4.000000000000D+00
16 09  8 22 18  0  0.0 2.038432285190D-05-3.751665644813D-12 0.000000000000D+00
    8.700000000000D+01-4.871875000000D+01 5.015923219050D-09 2.358944312436D+00
   -2.322718501091D-06 5.304855527356D-03 4.012137651443D-06 5.153598739624D+03
    5.832000000000D+05-1.117587089539D-08 2.309350753180D+00 2.011656761169D-07
    9.691495745470D-01 3.069687500000D+02-2.858245905415D-01-8.444637467332D-09
   -2.560820954186D-10 1.000000000000D+00 1.545000000000D+03 0.000000000000D+00
    2.000000000000D+00 0.000000000000D+00-9.778887033463D-09 8.700000000000D+01
    5.760180000000D+05 4.000000000000D+00
23 09  8 22 18  0  0.0 3.892951644957D-04-3.410605131648D-13 0.000000000000D+00
    7.400000000000D+01-5.500000000000D+01 4.037311027353D-09 8.677943148879D-02
   -2.782791852951D-06 6.439685705118D-03 1.210160553455D-05 5.153583663940D+03
    5.832000000000D+05 1.117587089539D-07 1.977317073136D-01-3.911554813385D-08
    9.702785011142D-01 1.498125000000D+02 2.948087161538D+00-7.942473693053D-09
   -1.821504444400D-10 1.000000000000D+00 1.545000000000D+03 0.000000000000D+00
    2.000000000000D+00 0.000000000000D+00-2.002343535423D-08 7.400000000000D+01
    5.760180000000D+05 4.000000000000D+00
29 09  8 22 18  0  0.0 5.093077197671D-05 3.296918293927D-12 0.000000000000D+00
    3.000000000000D+01-3.168750000000D+01 4.301250592923D-09-2.460802194175D+00
   -1.773238182068D-06 3.205693676136D-03 1.277029514313D-05 5.153632688522D+03
    5.832000000000D+05 2.048909664154D-08-2.923300137379D+00 6.891787052155D-08
    9.605744286035D-01 1.329375000000D+02-1.281807688755D+00-7.789967340551D-09
   -3.482287908412D-10 1.000000000000D+00 1.545000000000D+03 0.000000000000D+00
    2.000000000000D+00 0.000000000000D+00-8.847564458847D-09 3.000000000000D+01
    5.760180000000D+05 4.000000000000D+00
13 09  8 22 18  0  0.0 3.035496920347D-04 5.684341886081D-13 0.000000000000D+00
    6.600000000000D+01-5.196875000000D+01 3.402284575952D-09 7.690695048204D-01
   -2.730637788773D-06 4.070201888680D-03 1.249089837074D-05 5.153669094086D+03
    5.832000000000D+05-9.313225746155D-09 2.517781141748D-01-6.519258022308D-08
    9.948906436573D-01 1.537500000000D+02 1.650486261241D+00-7.595673533148D-09
   -1.639353999960D-10 1.000000000000D+00 1.545000000000D+03 0.000000000000D+00
    2.000000000000D+00 0.000000000000D+00-1.117587089539D-08 6.600000000000D+01
    5.760180000000D+05 4.000000000000D+00
24 09  8 22 18  0  0.0 2.144435420632D-04 3.069544618484D-12 0.000000000000D+00
    8.500000000000D+01 9.846875000000D+01 4.718767984199D-09 2.469861852734D+00
    5.232170224190D-06 6.556071224622D-03 7.770955562592D-06 5.153671287537D+03
    5.832000000000D+05-5.029141902924D-08-1.852472037776D+00 5.774199962616D-08
    9.500373851676D-01 2.267500000000D+02-6.375867785743D-01-8.151768125291D-09
    2.760829285336D-10 1.000000000000D+00 1.545000000000D+03 0.000000000000D+00
    2.000000000000D+00 0.000000000000D+00-1.396983861923D-09 8.500000000000D+01
    5.760180000000D+05 4.000000000000D+00
 2 09  8 22 18  0  0.0 1.670089550316D-04 2.501110429876D-12 0.000000000000D+00
    4.700000000000D+01 8.325000000000D+01 5.088426239092D-09 1.741771038612D-01
    4.164874553680D-06 9.063619654626D-03 8.111819624901D-06 5.153699275970D+03
    5.832000000000D+05 1.359730958939D-07-1.916947258468D+00-6.519258022308D-08
    9.407308255349D-01 2.150937500000D+02 2.882826298247D+00-8.542141528768D-09
    3.057270204718D-10 1.000000000000D+00 1.545000000000D+03 0.000000000000D+00
    2.000000000000D+00 0.000000000000D+00-1.722946763039D-08 4.700000000000D+01
    5.760180000000D+05 4.000000000000D+00
21 09  8 22 18  0  0.0-4.673842340708D-06-2.273736754432D-12 0.000000000000D+00
    4.500000000000D+01 1.004062500000D+02 5.076640033863D-09-2.465293342437D+00
    5.029141902924D-06 1.550742518157D-02 7.651746273041D-06 5.153763252258D+03
    5.832000000000D+05 2.421438694000D-08-1.886110734506D+00-1.471489667892D-07
    9.334369617619D-01 2.170625000000D+02-2.564108316535D+00-8.251057975398D-09
    5.110927176346D-10 1.000000000000D+00 1.545000000000D+03 0.000000000000D+00
    2.000000000000D+00 0.000000000000D+00-1.210719347000D-08 4.500000000000D+01
    5.773980000000D+05 4.000000000000D+00
